satname,norad_id,inclination_deg,eccentricity,mean_motion_rev_per_day,perigee_km,apogee_km,l1,l2
STARLINK-1474,45738,53.0385,0.000357,15.66429612,366.72156906916643,371.5391179524331,1 45738U 20038J   25302.48517569  .00073126  00000+0  68919-3 0  9991,2 45738  53.0385   4.0961 0003570 325.8519  34.2265 15.66429612297845
STARLINK-1475,45739,53.0499,0.000624,15.75525676,338.94165103925843,347.32979940033147,1 45739U 20038K   25302.50003471  .00321059  00000+0  19935-2 0  9991,2 45739  53.0499 330.6863 0006240   0.0137   9.0763 15.75525676  5955
STARLINK-1480,45741,53.0518,0.0001328,15.06404646,546.277634256503,548.1170030515386,1 45741U 20038M   25302.19708375  .00002309  00000+0  17382-3 0  9993,2 45741  53.0518 106.9107 0001328  83.7630 276.3511 15.06404646296389
STARLINK-1500,45744,53.0395,0.0003542,15.2729079,481.484692574797,486.34577037557483,1 45744U 20038Q   25300.83442280  .00027297  00000+0  10166-2 0  9990,2 45744  53.0395  92.3708 0003542 175.0775 185.0259 15.27290790296465
STARLINK-1504,45746,53.0291,0.0002513,15.40163247,443.91228124190184,447.34190507512267,1 45746U 20038S   25302.55896049  .00058978  00000+0  14468-2 0  9998,2 45746  53.0291  49.1485 0002513 210.3244 149.7615 15.40163247297213
STARLINK-1506,45747,53.0549,0.0002972,15.21154539,500.3120496799638,504.40181527342884,1 45747U 20038T   25298.73906845  .00021992  00000+0  98638-3 0  9997,2 45747  53.0549 104.3276 0002972 185.6499 174.4464 15.21154539296115
STARLINK-1464,45751,53.055,0.0001257,15.06405439,546.3243740184416,548.0654024551441,1 45751U 20038X   25302.13258481 -.00000133  00000+0  99370-5 0  9999,2 45751  53.0550  87.2007 0001257  88.3529 271.7605 15.06405439296659
STARLINK-1477,45754,53.0537,0.000135,15.06417684,546.2224448169063,548.0922742939865,1 45754U 20038AA  25302.14731038  .00005504  00000+0  38789-3 0  9998,2 45754  53.0537  87.1344 0001350  79.0116 281.1025 15.06417684296659
STARLINK-1478,45755,53.0536,0.000111,15.06399212,546.44525908783,547.9826870038451,1 45755U 20038AB  25302.09940626  .00000157  00000+0  29399-4 0  9995,2 45755  53.0536  87.3490 0001110  78.0311 282.0802 15.06399212296630
STARLINK-1484,45756,53.0181,0.0001516,15.59894123,386.93748633498217,388.98896792384676,1 45756U 20038AC  25302.40551610  .00080250  00000+0  97531-3 0  9996,2 45756  53.0181 352.4402 0001516 336.3535  23.7407 15.59894123297994
STARLINK-1493,45759,53.0536,0.000127,15.06398854,546.335550552526,548.0945899783737,1 45759U 20038AF  25301.15949415  .00000511  00000+0  53201-4 0  9993,2 45759  53.0536  91.5674 0001270  89.6213 270.4922 15.06398854296490
STARLINK-1494,45760,53.0544,0.0001697,15.51073356,412.43841583511403,414.74352830883527,1 45760U 20038AG  25301.76586405  .00041155  00000+0  69914-3 0  9994,2 45760  53.0544  74.8182 0001697  17.0467 343.0598 15.51073356296794
STARLINK-1502,45764,53.0545,0.0001408,15.06407089,546.214745241642,548.1649172773259,1 45764U 20038AL  25302.12152306  .00002560  00000+0  19068-3 0  9990,2 45764  53.0545  87.2497 0001408  88.2187 271.8964 15.06407089296659
STARLINK-1470,45772,53.0459,0.0002882,15.17464273,511.5211923359975,515.4935361475464,1 45772U 20038AU  25302.52224281  .00016068  00000+0  80643-3 0  9990,2 45772  53.0459  58.0774 0002882 208.4343 151.6494 15.17464273297095
STARLINK-1482,45773,53.0543,0.0001333,15.06406192,546.2694339820237,548.115726848162,1 45773U 20038AV  25302.48458685  .00002607  00000+0  19381-3 0  9998,2 45773  53.0543  65.6201 0001333  88.4720 271.6421 15.06406192296988
STARLINK-1485,45774,53.0388,0.0007612,16.11123169,238.72334254908947,248.8045245303092,1 45774U 20038AW  25302.47097840  .01090815  74418-3  10534-2 0  9997,2 45774  53.0388 354.5080 0007612  11.5491 348.5717 16.11123169297978
STARLINK-1496,45780,53.0555,0.0001229,15.06413501,546.3190593744439,548.0212998791958,1 45780U 20038BC  25302.51776110 -.00002688  00000+0 -16156-3 0  9994,2 45780  53.0555  65.4696 0001229  91.2093 268.9037 15.06413501296977
STARLINK-1497,45781,53.0401,0.0005803,15.5357939,402.3483134696544,410.2223140069782,1 45781U 20038BD  25302.50003471  .00137687  00000+0  20942-2 0  9990,2 45781  53.0401  11.5883 0005803 276.2144  61.4666 15.53579390  5885
STARLINK-1510,45784,53.0331,0.0001357,15.68817672,361.3667870675681,363.1961366381138,1 45784U 20038BG  25302.50003471  .00234613  00000+0  19575-2 0  9990,2 45784  53.0331 348.0189 0001357  52.4760  47.5951 15.68817672  5926
STARLINK-1513,45786,53.0552,0.0001167,15.06400918,546.4005565535508,548.0169322502943,1 45786U 20038BJ  25302.08281333  .00001341  00000+0  10891-3 0  9993,2 45786  53.0552  67.4237 0001167  91.8712 268.2410 15.06400918296929
STARLINK-1522,46027,53.0552,0.0001424,15.06422926,546.1551343122965,548.1274535704115,1 46027U 20055A   25302.52789184  .00009515  00000+0  65638-3 0  9997,2 46027  53.0552 355.4257 0001424  76.2174 283.8973 15.06422926289118
STARLINK-1523,46028,53.0547,0.0001345,15.06421667,546.213702050326,548.076602949348,1 46028U 20055B   25302.47629451  .00010669  00000+0  73363-3 0  9998,2 46028  53.0547 355.6590 0001345 100.4584 259.6556 15.06421667289122
STARLINK-1526,46029,53.0553,0.0001483,15.06417937,546.1295631236335,548.1836052006965,1 46029U 20055C   25302.46891838  .00009948  00000+0  68545-3 0  9992,2 46029  53.0553 355.6878 0001483  90.4483 269.6676 15.06417937289116
STARLINK-1555,46032,53.0551,0.000133,15.06419278,546.2314107748361,548.0735377749934,1 46032U 20055F   25302.52052160  .00012423  00000+0  85095-3 0  9991,2 46032  53.0551 355.4589 0001330  98.8523 261.2617 15.06419278289127
STARLINK-1556,46033,53.0561,0.0001471,15.06422411,546.124163633378,548.1615809718096,1 46033U 20055G   25302.43573765  .00005849  00000+0  41100-3 0  9994,2 46033  53.0561 355.8406 0001471  97.0695 263.0461 15.06422411289083
STARLINK-1557,46034,53.0564,0.0001426,15.06416061,546.1747860388468,548.1498814088254,1 46034U 20055H   25302.43943015  .00001678  00000+0  13149-3 0  9992,2 46034  53.0564 355.8237 0001426  88.6283 271.4869 15.06416061289087
STARLINK-1558,46035,53.0553,0.0001336,15.06414914,546.2406285927682,548.0910695140356,1 46035U 20055J   25302.44680353  .00009303  00000+0  64236-3 0  9993,2 46035  53.0553 355.7921 0001336  92.8131 267.3011 15.06414914289116
STARLINK-1560,46036,53.0549,0.0001446,15.06427517,546.1258303734812,548.1286167869421,1 46036U 20055K   25302.43205326  .00015007  00000+0  10235-2 0  9993,2 46036  53.0549 355.8601 0001446  88.8493 271.2662 15.06427517289115
